start=new Date('2023-02-21T00:00:00.000Z').valueOf();
sats=[{"APOAPSIS":"540.412","MEAN_MOTION_DDOT":"0.0000000000000","CLASSIFICATION_TYPE":"U","SEMIMAJOR_AXIS":"6917.868","COUNTRY_CODE":"US","SITE":"AFWTR","MEAN_MOTION_DOT":"-0.00000043","PERIOD":"95.437","BSTAR":"0.00001538000000","MEAN_ANOMALY":"274.2398","OBJECT_ID":"2022-051AW","OBJECT_NAME":"STARLINK-3919","MEAN_MOTION":"15.08844169","FILE":"3817275","REF_FRAME":"TEME","PERIAPSIS":"539.053","INCLINATION":"53.2136","RCS_SIZE":"LARGE","TLE_LINE1":"1 52580U 22051AW  23051.82674354 -.00000043  00000-0  15380-4 0  9999","LAUNCH_DATE":"2022-05-13","CENTER_NAME":"EARTH","TIME_SYSTEM":"UTC","DECAY_DATE":null,"ARG_OF_PERICENTER":"85.8706","TLE_LINE2":"2 52580  53.2136  89.9576 0000982  85.8706 274.2398 15.08844169 43445","RA_OF_ASC_NODE":"89.9576","ELEMENT_SET_NO":"999","EPHEMERIS_TYPE":"0","REV_AT_EPOCH":"4344","EPOCH":"2023-02-20T19:50:30.641856","ECCENTRICITY":"0.00009820","OBJECT_TYPE":"PAYLOAD","GP_ID":"226193340","NORAD_CAT_ID":"52580","MEAN_ELEMENT_THEORY":"SGP4"},{"MEAN_MOTION_DOT":"0.00001545","PERIOD":"95.437","SITE":"AFWTR","COUNTRY_CODE":"US","SEMIMAJOR_AXIS":"6917.854","CLASSIFICATION_TYPE":"U","MEAN_MOTION_DDOT":"0.0000000000000","APOAPSIS":"540.362","MEAN_MOTION":"15.08848518","REF_FRAME":"TEME","FILE":"3815761","OBJECT_ID":"2022-051AX","MEAN_ANOMALY":"263.3949","BSTAR":"0.00011510000000","OBJECT_NAME":"STARLINK-3915","ARG_OF_PERICENTER":"96.7149","DECAY_DATE":null,"RA_OF_ASC_NODE":"76.6773","TLE_LINE2":"2 52581  53.2157  76.6773 0000929  96.7149 263.3949 15.08848518 43526","RCS_SIZE":"LARGE","PERIAPSIS":"539.077","INCLINATION":"53.2157","TIME_SYSTEM":"UTC","LAUNCH_DATE":"2022-05-13","CENTER_NAME":"EARTH","TLE_LINE1":"1 52581U 22051AX  23051.44356400  .00001545  00000-0  11510-3 0  9994","OBJECT_TYPE":"PAYLOAD","GP_ID":"226158438","MEAN_ELEMENT_THEORY":"SGP4","NORAD_CAT_ID":"52581","REV_AT_EPOCH":"4352","EPHEMERIS_TYPE":"0","ELEMENT_SET_NO":"999","ECCENTRICITY":"0.00009290","EPOCH":"2023-02-20T10:38:43.929600"},{"TLE_LINE2":"2 52582  53.2159  73.9742 0001627  82.0181 278.0996 15.08844455 43683","RA_OF_ASC_NODE":"73.9742","DECAY_DATE":null,"ARG_OF_PERICENTER":"82.0181","TLE_LINE1":"1 52582U 22051AY  23052.04708699 -.00001315  00000-0 -64522-4 0  9992","TIME_SYSTEM":"UTC","LAUNCH_DATE":"2022-05-13","CENTER_NAME":"EARTH","RCS_SIZE":"LARGE","INCLINATION":"53.2159","PERIAPSIS":"538.606","MEAN_ELEMENT_THEORY":"SGP4","NORAD_CAT_ID":"52582","GP_ID":"226193171","OBJECT_TYPE":"PAYLOAD","ECCENTRICITY":"0.00016270","EPOCH":"2023-02-21T01:07:48.315936","EPHEMERIS_TYPE":"0","ELEMENT_SET_NO":"999","REV_AT_EPOCH":"4368","SITE":"AFWTR","COUNTRY_CODE":"US","PERIOD":"95.437","MEAN_MOTION_DOT":"-0.00001315","APOAPSIS":"540.857","SEMIMAJOR_AXIS":"6917.867","MEAN_MOTION_DDOT":"0.0000000000000","CLASSIFICATION_TYPE":"U","REF_FRAME":"TEME","FILE":"3817275","MEAN_MOTION":"15.08844455","OBJECT_NAME":"STARLINK-3886","BSTAR":"-0.00006452200000","OBJECT_ID":"2022-051AY","MEAN_ANOMALY":"278.0996"},{"DECAY_DATE":null,"ARG_OF_PERICENTER":"81.1749","TLE_LINE2":"2 52583  53.2147  76.4029 0001157  81.1749 278.9374 15.08854525 43537","RA_OF_ASC_NODE":"76.4029","RCS_SIZE":"LARGE","PERIAPSIS":"538.901","INCLINATION":"53.2147","TLE_LINE1":"1 52583U 22051AZ  23051.50612239  .00005444  00000-0  35970-3 0  9996","TIME_SYSTEM":"UTC","LAUNCH_DATE":"2022-05-13","CENTER_NAME":"EARTH","GP_ID":"226157438","OBJECT_TYPE":"PAYLOAD","MEAN_ELEMENT_THEORY":"SGP4","NORAD_CAT_ID":"52583","EPHEMERIS_TYPE":"0","ELEMENT_SET_NO":"999","REV_AT_EPOCH":"4353","ECCENTRICITY":"0.00011570","EPOCH":"2023-02-20T12:08:48.974496","SITE":"AFWTR","COUNTRY_CODE":"US","MEAN_MOTION_DOT":"0.00005444","PERIOD":"95.437","APOAPSIS":"540.501","SEMIMAJOR_AXIS":"6917.836","MEAN_MOTION_DDOT":"0.0000000000000","CLASSIFICATION_TYPE":"U","MEAN_MOTION":"15.08854525","REF_FRAME":"TEME","FILE":"3815761","BSTAR":"0.00035970000000","OBJECT_ID":"2022-051AZ","MEAN_ANOMALY":"278.9374","OBJECT_NAME":"STARLINK-3895"},{"MEAN_MOTION_DDOT":"0.0000000000000","CLASSIFICATION_TYPE":"U","SEMIMAJOR_AXIS":"6917.877","APOAPSIS":"540.499","PERIOD":"95.437","MEAN_MOTION_DOT":"0.00005202","COUNTRY_CODE":"US","SITE":"AFWTR","OBJECT_ID":"2022-051BA","MEAN_ANOMALY":"272.4744","BSTAR":"0.00034464000000","OBJECT_NAME":"STARLINK-3922","MEAN_MOTION":"15.08841128","FILE":"3817290","REF_FRAME":"TEME","PERIAPSIS":"538.985","INCLINATION":"53.2155","RCS_SIZE":"LARGE","CENTER_NAME":"EARTH","LAUNCH_DATE":"2022-05-13","TIME_SYSTEM":"UTC","TLE_LINE1":"1 52584U 22051BA  23051.77844488  .00005202  00000-0  34464-3 0  9998","ARG_OF_PERICENTER":"87.6373","DECAY_DATE":null,"RA_OF_ASC_NODE":"75.1798","TLE_LINE2":"2 52584  53.2155  75.1798 0001094  87.6373 272.4744 15.08841128 43647","REV_AT_EPOCH":"4364","ELEMENT_SET_NO":"999","EPHEMERIS_TYPE":"0","EPOCH":"2023-02-20T18:40:57.637632","ECCENTRICITY":"0.00010940","GP_ID":"226193192","OBJECT_TYPE":"PAYLOAD","MEAN_ELEMENT_THEORY":"SGP4","NORAD_CAT_ID":"52584"},{"APOAPSIS":"540.513","SEMIMAJOR_AXIS":"6917.889","CLASSIFICATION_TYPE":"U","MEAN_MOTION_DDOT":"0.0000000000000","SITE":"AFWTR","COUNTRY_CODE":"US","MEAN_MOTION_DOT":"0.00010218","PERIOD":"95.438","OBJECT_NAME":"STARLINK-3906","BSTAR":"0.00065917000000","MEAN_ANOMALY":"267.6607","OBJECT_ID":"2022-051BB","REF_FRAME":"TEME","FILE":"3815585","MEAN_MOTION":"15.08837311","TLE_LINE1":"1 52585U 22051BB  23051.56501658  .00010218  00000-0  65917-3 0  9995","TIME_SYSTEM":"UTC","LAUNCH_DATE":"2022-05-13","CENTER_NAME":"EARTH","RCS_SIZE":"LARGE","INCLINATION":"53.2154","PERIAPSIS":"538.995","TLE_LINE2":"2 52585  53.2154  76.1388 0001097  92.4511 267.6607 15.08837311 43614","RA_OF_ASC_NODE":"76.1388","DECAY_DATE":null,"ARG_OF_PERICENTER":"92.4511","ECCENTRICITY":"0.00010970","EPOCH":"2023-02-20T13:33:37.432512","EPHEMERIS_TYPE":"0","ELEMENT_SET_NO":"999","REV_AT_EPOCH":"4361","MEAN_ELEMENT_THEORY":"SGP4","NORAD_CAT_ID":"52585","GP_ID":"226130853","OBJECT_TYPE":"PAYLOAD"},{"GP_ID":"226193359","OBJECT_TYPE":"PAYLOAD","MEAN_ELEMENT_THEORY":"SGP4","NORAD_CAT_ID":"52586","REV_AT_EPOCH":"4368","ELEMENT_SET_NO":"999","EPHEMERIS_TYPE":"0","EPOCH":"2023-02-21T00:46:37.208640","ECCENTRICITY":"0.00009360","ARG_OF_PERICENTER":"89.5522","DECAY_DATE":null,"RA_OF_ASC_NODE":"74.0319","TLE_LINE2":"2 52586  53.2169  74.0319 0000936  89.5522 270.5577 15.08832482 43682","PERIAPSIS":"539.121","INCLINATION":"53.2169","RCS_SIZE":"LARGE","LAUNCH_DATE":"2022-05-13","CENTER_NAME":"EARTH","TIME_SYSTEM":"UTC","TLE_LINE1":"1 52586U 22051BC  23052.03237510 -.00000418  00000-0 -81703-5 0  9998","MEAN_MOTION":"15.08832482","FILE":"3817290","REF_FRAME":"TEME","MEAN_ANOMALY":"270.5577","OBJECT_ID":"2022-051BC","BSTAR":"-0.00000817030000","OBJECT_NAME":"STARLINK-3910","PERIOD":"95.438","MEAN_MOTION_DOT":"-0.00000418","COUNTRY_CODE":"US","SITE":"AFWTR","MEAN_MOTION_DDOT":"0.0000000000000","CLASSIFICATION_TYPE":"U","SEMIMAJOR_AXIS":"6917.903","APOAPSIS":"540.416"},{"OBJECT_NAME":"STARLINK-3867","BSTAR":"0.00034809000000","OBJECT_ID":"2022-051BD","MEAN_ANOMALY":"285.5298","FILE":"3817290","REF_FRAME":"TEME","MEAN_MOTION":"15.08821915","APOAPSIS":"540.272","CLASSIFICATION_TYPE":"U","MEAN_MOTION_DDOT":"0.0000000000000","SEMIMAJOR_AXIS":"6917.936","COUNTRY_CODE":"US","SITE":"AFWTR","PERIOD":"95.439","MEAN_MOTION_DOT":"0.00005254","EPOCH":"2023-02-21T00:36:00.004320","ECCENTRICITY":"0.00006810","ELEMENT_SET_NO":"999","EPHEMERIS_TYPE":"0","REV_AT_EPOCH":"4368","MEAN_ELEMENT_THEORY":"SGP4","NORAD_CAT_ID":"52587","GP_ID":"226193186","OBJECT_TYPE":"PAYLOAD","TLE_LINE1":"1 52587U 22051BD  23052.02500005  .00005254  00000-0  34809-3 0  9994","LAUNCH_DATE":"2022-05-13","CENTER_NAME":"EARTH","TIME_SYSTEM":"UTC","PERIAPSIS":"539.330","INCLINATION":"53.2135","RCS_SIZE":"LARGE","TLE_LINE2":"2 52587  53.2135  74.0702 0000681  74.5769 285.5298 15.08821915 43681","RA_OF_ASC_NODE":"74.0702","DECAY_DATE":null,"ARG_OF_PERICENTER":"74.5769"},{"ECCENTRICITY":"0.00016930","EPOCH":"2023-02-20T18:09:09.944640","REV_AT_EPOCH":"4364","EPHEMERIS_TYPE":"0","ELEMENT_SET_NO":"999","MEAN_ELEMENT_THEORY":"SGP4","NORAD_CAT_ID":"52588","OBJECT_TYPE":"PAYLOAD","GP_ID":"226193188","TIME_SYSTEM":"UTC","LAUNCH_DATE":"2022-05-13","CENTER_NAME":"EARTH","TLE_LINE1":"1 52588U 22051BE  23051.75636510  .00001395  00000-0  10572-3 0  9998","RCS_SIZE":"LARGE","INCLINATION":"53.2144","PERIAPSIS":"538.581","RA_OF_ASC_NODE":"75.2801","TLE_LINE2":"2 52588  53.2144  75.2801 0001693  93.4906 266.6280 15.08837796 43643","ARG_OF_PERICENTER":"93.4906","DECAY_DATE":null,"OBJECT_NAME":"STARLINK-3917","MEAN_ANOMALY":"266.6280","OBJECT_ID":"2022-051BE","BSTAR":"0.00010572000000","REF_FRAME":"TEME","FILE":"3817290","MEAN_MOTION":"15.08837796","SEMIMAJOR_AXIS":"6917.887","MEAN_MOTION_DDOT":"0.0000000000000","CLASSIFICATION_TYPE":"U","APOAPSIS":"540.923","MEAN_MOTION_DOT":"0.00001395","PERIOD":"95.438","SITE":"AFWTR","COUNTRY_CODE":"US"},{"OBJECT_TYPE":"PAYLOAD","GP_ID":"226194803","NORAD_CAT_ID":"52598","MEAN_ELEMENT_THEORY":"SGP4","REV_AT_EPOCH":"4314","ELEMENT_SET_NO":"999","EPHEMERIS_TYPE":"0","EPOCH":"2023-02-20T19:04:08.293152","ECCENTRICITY":"0.00013440","ARG_OF_PERICENTER":"75.8682","DECAY_DATE":null,"RA_OF_ASC_NODE":"240.1033","TLE_LINE2":"2 52598  53.2143 240.1033 0001344  75.8682 284.2459 15.08846206 43146","INCLINATION":"53.2143","PERIAPSIS":"538.797","RCS_SIZE":"LARGE","LAUNCH_DATE":"2022-05-14","CENTER_NAME":"EARTH","TIME_SYSTEM":"UTC","TLE_LINE1":"1 52598U 22052A   23051.79454043  .00001669  00000-0  12288-3 0  9993","MEAN_MOTION":"15.08846206","FILE":"3817352","REF_FRAME":"TEME","MEAN_ANOMALY":"284.2459","OBJECT_ID":"2022-052A","BSTAR":"0.00012288000000","OBJECT_NAME":"STARLINK-4019","MEAN_MOTION_DOT":"0.00001669","PERIOD":"95.437","SITE":"AFETR","COUNTRY_CODE":"US","MEAN_MOTION_DDOT":"0.0000000000000","CLASSIFICATION_TYPE":"U","SEMIMAJOR_AXIS":"6917.861","APOAPSIS":"540.656"}];
